StationNumber,GisID,Gis_X,Gis_Y,AddressID,DistrictCode,DistrictName,NeighborhoodCode,NeighborhoodName,Address,Capacity,CoordinatesID,Longitude,Latitude
001a,001a,"440443,61","4474290,65",001a,1,CENTRO,16,SOL,-CALLE-DE-ALCALA-2,30,001a,-3.701998,40.4171107
001b,001b,"440480,56","4474301,74",001b,1,CENTRO,16,SOL,-CALLE-DE-ALCALA-6,30,001b,-3.7015636,40.4172132
2,2,"440134,83","4474678,23",2,1,CENTRO,15,UNIVERSIDAD,CALLEDE-MIGUEL-MOYA-1,24,2,-3.7056739,40.42058
3,3,"440012,98","4475760,68",3,7,CHAMBERÍ,72,ARAPILES,-PLAZADEL-CONDE-DEL-VALLE-DE-SUCHIL-2,18,3,-3.7072122,40.4303224
4,4,"440396,4","4475565,36",4,1,CENTRO,15,UNIVERSIDAD,-CALLEDE-MANUELA-MALASAÑA-3,24,4,-3.7026739,40.4285905
5,5,"440447,06","4475539,6",5,1,CENTRO,14,JUSTICIA,-CALLEDE-FUENCARRAL-106,27,5,-3.7020743,40.428362
6,6,"440754,26","4475071,08",6,1,CENTRO,14,JUSTICIA,-CALLEDE-HORTALEZA-63,24,6,-3.6984093,40.4241633
7,7,"440811,97","4475187,49",7,1,CENTRO,14,JUSTICIA,-CALLEDE-HORTALEZA-75,21,7,-3.6977399,40.4252161
8,8,"441020,56","4475463,16",8,7,CHAMBERÍ,74,ALMAGRO,-PLAZADE-ALONSO-MARTINEZ-6,24,8,-3.6953067,40.4277143
9,9,"439813,51","4474129,47",9,1,CENTRO,11,PALACIO,-PLAZADE-SAN-MIGUEL-9,24,9,-3.7094093,40.4156134
10,10,"441292,12","4475204,43",10,1,CENTRO,14,JUSTICIA,-CALLEDEL-MARQUES-DE-LA-ENSENADA-16,24,10,-3.6920816,40.4254027
11,11,"440314,86","4475395,19",11,1,CENTRO,15,UNIVERSIDAD,-CALLEDE-SAN-ANDRES-20,24,11,-3.7036192,40.4270517
12,12,"440095,53","4475560,73",12,1,CENTRO,15,UNIVERSIDAD,-CALLEDE-SAN-BERNARDO-87,24,12,-3.7062202,40.4285271
13,13,"439733,78","4475434,65",13,1,CENTRO,15,UNIVERSIDAD,-CALLEDEL-CONDE-DUQUE-22,24,13,-3.7104727,40.4273652
14,14,"439486,2","4475284,13",14,9,MONCLOA-ARAVACA,92,ARGÜELLES,-CALLEDE-VENTURA-RODRIGUEZ-1,24,14,-3.7133768,40.4259913
15,15,"439996,77","4475313,59",15,1,CENTRO,15,UNIVERSIDAD,-CALLEDEL-NORTE-10,21,15,-3.7073611,40.4262937
16,16,"439982,39","4474941,66",16,1,CENTRO,15,UNIVERSIDAD,-CALLEDE-SAN-BERNARDO-22,21,16,-3.7074955,40.4229421
17,17,"440263,35","4474964,43",17,1,CENTRO,15,UNIVERSIDAD,-PLAZADE-CARLOS-CAMBRONERO-2,24,17,-3.7041859,40.4231675
18,18,"440653,13","4474711,92",18,1,CENTRO,14,JUSTICIA,-PLAZADE-PEDRO-ZEROLO-1,24,18,-3.6995679,40.4209206
19,19,"441007,98","4474817,8",19,1,CENTRO,14,JUSTICIA,-CALLEDE-PRIM-4,24,19,-3.6953951,40.4218997
20,20,"441021,37","4474517,89",20,1,CENTRO,14,JUSTICIA,-CALLEDE-ALCALA-49,24,20,-3.6952095,40.4191989
020ampliacion,020ampliacion,"441014,52","4474516,49",020ampliacion,1,CENTRO,14,JUSTICIA,-CALLEDE-ALCALA-49,6,020ampliacion,-3.6952901,40.4191858
22,22,"440064,4","4474630,53",22,1,CENTRO,16,SOL,-CALLEDE-JACOMETREZO-1,24,22,-3.7064995,40.4201452
23,23,"439912,56","4474639,35",23,1,CENTRO,11,PALACIO,-PLAZADE-SANTO-DOMINGO-,24,23,-3.7082901,40.4202137
24,24,"439715,67","4474384,75",24,1,CENTRO,11,PALACIO,-CALLEDE-CARLOS-III-1,24,24,-3.7105866,40.417906
025a,025a,"440104,48","4474318,99",025a,1,CENTRO,16,SOL,-PLAZADEL-CELENQUE-1,24,025a,-3.7059978,40.4173416
025b,025b,"440102,16","4474309,87",025b,1,CENTRO,16,SOL,-PLAZADEL-CELENQUE-1,24,025b,-3.7060243,40.4172593
26,26,"441082,03","4475031,58",26,1,CENTRO,14,JUSTICIA,-PLAZADE-LAS-SALESAS-8,24,26,-3.6945421,40.4238308
27,27,"440984,74","4473861,49",27,1,CENTRO,13,CORTES,-CALLEDE-JESUS-6,27,27,-3.6955803,40.4132831
28,28,"440752,57","4474394,64",28,1,CENTRO,13,CORTES,-CALLEDE-ALCALA-26,24,28,-3.6983662,40.4180695
29,29,"440968,62","4474190,29",29,1,CENTRO,13,CORTES,-CALLEDEL-MARQUES-DE-CUBAS-25,24,29,-3.6958008,40.416244
30,30,"439635,83","4474544,08",30,1,CENTRO,11,PALACIO,-CALLEDE-PAVIA-6,27,30,-3.7115428,40.4193355
31,31,"440050,38","4474208,74",31,1,CENTRO,16,SOL,-CALLEMAYOR-18,27,31,-3.706625,40.4163446
32,32,"440090,59","4474042,64",32,1,CENTRO,16,SOL,-PLAZADE-LA-PROVINCIA-1,18,32,-3.7061355,40.4148511
33,33,"440340,26","4474220,99",33,1,CENTRO,16,SOL,-CALLEDE-LAS-CARRETAS-3,21,33,-3.7032096,40.4164757
34,34,"440313,43","4473992,08",34,1,CENTRO,13,CORTES,-PLAZADE-JACINTO-BENAVENTE-,24,34,-3.7035044,40.4144117
35,35,"439730,93","4473970,93",35,1,CENTRO,11,PALACIO,-PLAZADEL-CORDON-1,24,35,-3.7103676,40.4141792
36,36,"439614,82","4474265,33",36,1,CENTRO,11,PALACIO,-PLAZADE-RAMALES-5,24,36,-3.711764,40.4168229
37,37,"439409,3","4473605,14",37,1,CENTRO,11,PALACIO,-PLAZADE-SAN-FRANCISCO-5,24,37,-3.7141234,40.4108606
38,38,439637,"4473651,64",38,1,CENTRO,11,PALACIO,-CARRERADE-SAN-FRANCISCO-1,24,38,-3.7114443,40.4112961
39,39,439844,"4473646,66",39,1,CENTRO,11,PALACIO,-PLAZADE-LA-CEBADA-16,27,39,-3.7090043,40.4112662
40,40,"440207,51","4473923,52",40,1,CENTRO,12,EMBAJADORES,-CALLEDEL-CONDE-DE-ROMANONES-2,24,40,-3.7047463,40.4137865
41,41,"440694,54","4473746,65",41,1,CENTRO,12,EMBAJADORES,-CALLEDE-ATOCHA-56,18,41,-3.6989898,40.412228
42,42,"440757,78","4473584,46",42,1,CENTRO,12,EMBAJADORES,-CALLEDE-SANTA-ISABEL-32,24,42,-3.6982294,40.4107714
43,43,"440391,04","4473511,6",43,1,CENTRO,12,EMBAJADORES,-CALLEDE-LAVAPIES-36,24,43,-3.7025446,40.4100889
44,44,"440274,63","4473482,26",44,1,CENTRO,12,EMBAJADORES,-CALLEDEL-MESON-DE-PAREDES-35,21,44,-3.7039138,40.4098162
45,45,"439659,1","4473168,86",45,1,CENTRO,12,EMBAJADORES,-GLORIETADE-LA-PUERTA-DE-TOLEDO-1,21,45,-3.7111381,40.4069486
46,46,"439998,9","4472999,74",46,2,ARGANZUELA,22,ACACIAS,-CALLEDE-LA-RIBERA-DE-CURTIDORES-28,24,46,-3.7071178,40.4054496
47,47,"440368,37","4472905,07",47,2,ARGANZUELA,22,ACACIAS,-GLORIETADE-EMBAJADORES-7-B,24,47,-3.702755,40.4046233
48,48,"440424,7","4472996,09",48,1,CENTRO,12,EMBAJADORES,-GLORIETADE-EMBAJADORES-2,24,48,-3.7020997,40.4054473
49,49,"440667,66","4473061,04",49,1,CENTRO,12,EMBAJADORES,-RONDADE-ATOCHA-36,24,49,-3.6992427,40.4060497
50,50,"441180,67","4473307,92",50,1,CENTRO,12,EMBAJADORES,-CALLEDE-SANTA-ISABEL-57,24,50,-3.69322,40.4083102
51,51,"441148,47","4473243,04",51,1,CENTRO,12,EMBAJADORES,-PLAZADEL-EMPERADOR-CARLOS-V-7,27,51,-3.6935934,40.4077234
52,52,"440544,34","4474002,06",52,1,CENTRO,13,CORTES,-PLAZADE-SANTA-ANA-9,24,52,-3.7007838,40.4145181
53,53,"440543,46","4473309,62",53,1,CENTRO,12,EMBAJADORES,-CALLEDE-VALENCIA-2,24,53,-3.7007295,40.4082802
54,54,"440592,35","4475345,44",54,1,CENTRO,14,JUSTICIA,-CALLEDE-BARCELO-7,21,54,-3.7003435,40.4266233
55,55,"440455,56","4475063,26",55,1,CENTRO,15,UNIVERSIDAD,-PLAZADE-SAN-ILDEFONSO-8,24,55,-3.7019295,40.4240716
56,56,"440335,43","4474443,96",56,1,CENTRO,16,SOL,-PLAZADEL-CARMEN-1,24,56,-3.7032875,40.418484
57,57,"439536,86","4475688,34",57,1,CENTRO,15,UNIVERSIDAD,-CALLEDE-SANTA-CRUZ-DE-MARCENADO-24,24,57,-3.7128181,40.4296363
58,58,"440791,91","4474859,51",58,1,CENTRO,14,JUSTICIA,-CALLEDE-AUGUSTO-FIGUEROA-33,24,58,-3.6979458,40.4222601
59,59,"440271,27","4475221,1",59,1,CENTRO,15,UNIVERSIDAD,-CALLEDEL-ESPIRITU-SANTO-30,21,59,-3.7041167,40.4254802
60,60,"441616,3","4474541,2",60,3,RETIRO,35,JERÓNIMOS,-PLAZADE-LA-INDEPENDENCIA-7,24,60,-3.6881994,40.4194508
61,61,"442720,29","4474753,26",61,3,RETIRO,34,IBIZA,-CALLEDE-O'DONNELL-30,24,61,-3.675206,40.4214379
62,62,"442956,32","4474735,99",62,3,RETIRO,34,IBIZA,-CALLEDE-O'DONNELL-48,24,62,-3.6724223,40.4212986
63,63,"443103,74","4474356,79",63,3,RETIRO,34,IBIZA,-CALLEDE-IBIZA-64,24,63,-3.6706508,40.4178926
65,65,"441513,53","4474235,07",65,3,RETIRO,35,JERÓNIMOS,-CALLEDE-ANTONIO-MAURA-15,24,65,-3.6893825,40.4166859
67,67,"441190,08","4473587,45",67,1,CENTRO,13,CORTES,-CALLEDE-ALMADEN-28,24,67,-3.6931349,40.410829
68,68,"441358,92","4473802,81",68,3,RETIRO,35,JERÓNIMOS,-CALLEDE-ESPALTER-1,21,68,-3.6911649,40.412781
69,69,"441551,54","4473499,36",69,3,RETIRO,35,JERÓNIMOS,-CALLEDE-ALFONSO-XII-54,27,69,-3.6888669,40.4100609
70,70,"442494,99","4474064,79",70,3,RETIRO,35,JERÓNIMOS,-AVENIDADE-MENENDEZ-PELAYO-63,24,70,-3.6777994,40.4152203
71,71,"442816,22","4474149,49",71,3,RETIRO,36,NIÑO-JESÚS-,-CALLEDEL-DOCE-DE-OCTUBRE-28,24,71,-3.674021,40.4160054
72,72,"443189,11","4474115,08",72,3,RETIRO,36,NIÑO-JESÚS-,-CALLEDEL-DOCTOR-ESQUERDO-62,24,72,-3.669623,40.415721
73,73,"443229,99","4473642,11",73,3,RETIRO,33,ESTRELLA,-PLAZADE-LOS-ASTROS-,24,73,-3.669099,40.411463
74,74,"442595,78","4473679,92",74,3,RETIRO,35,JERÓNIMOS,-AVENIDADE-MENENDEZ-PELAYO-,24,74,-3.6765768,40.4117601
75,75,"442436,91","4473301,34",75,3,RETIRO,35,JERÓNIMOS,-AVENIDADE-MENENDEZ-PELAYO-,24,75,-3.6784149,40.4083387
76,76,"442712,67","4473182,27",76,3,RETIRO,36,NIÑO-JESÚS-,-AVENIDADEL-MEDITERRANEO-19,24,76,-3.6751544,40.4072851
77,77,"443083,53","4473073,95",77,3,RETIRO,31,PACÍFICO,-PLAZADEL-CONDE-DE-CASAL-8,22,77,-3.6707742,40.4063347
78,78,"442755,86","4472436,57",78,3,RETIRO,32,ADELFAS,-CALLEDEL-CERRO-DE-LA-PLATA-2,24,78,-3.6745783,40.4005704
79,79,"442252,73","4472937,49",79,3,RETIRO,31,PACÍFICO,-AVENIDADE-MENENDEZ-PELAYO-38,24,79,-3.6805524,40.4050482
080a,080a,"441412,24","4473206,43",080a,2,ARGANZUELA,27,ATOCHA,-AVENIDADE-LA-CIUDAD-DE-BARCELONA-,24,080a,-3.6904816,40.4074122
080b,080b,"441391,88","4473230,32",080b,2,ARGANZUELA,27,ATOCHA,-AVENIDADE-LA-CIUDAD-DE-BARCELONA-,27,080b,-3.6907238,40.407626
81,81,"441288,14","4473447,57",81,3,RETIRO,35,JERÓNIMOS,-CALLEDE-CLAUDIO-MOYANO-,24,81,-3.6919663,40.4095758
82,82,"443177,93","4473311,29",82,3,RETIRO,33,ESTRELLA,-CALLEDE-LA-LIRA-2,24,82,-3.669683,40.4084793
83,83,"442770,38","4473844,96",83,3,RETIRO,36,NIÑO-JESÚS-,-CALLEDE-PIO-BAROJA-8-B,24,83,-3.6745339,40.4132589
84,84,"442918,27","4472746,05",84,3,RETIRO,32,ADELFAS,-CALLEDEL-DOCTOR-ESQUERDO-191,24,84,-3.6726923,40.4033695
85,85,"442319,29","4474723,43",85,3,RETIRO,35,JERÓNIMOS,-AVENIDADE-MENENDEZ-PELAYO-9,27,85,-3.6799299,40.4211415
86,86,"441180,29","4474447,71",86,1,CENTRO,13,CORTES,-PASEODEL-PRADO-,21,86,-3.6933298,40.4185779
87,87,"442016,68","4475450,66",87,4,SALAMANCA,41,RECOLETOS,-CALLEDE-AYALA-44,24,87,-3.6835631,40.4276717
88,88,"442004,11","4475843,28",88,4,SALAMANCA,46,CASTELLANA,-CALLEDE-VELAZQUEZ-73,24,88,-3.6837471,40.4312077
89,89,"442728,15","4475399,8",89,4,SALAMANCA,42,GOYA,-CALLEDE-AYALA-102,24,89,-3.6751716,40.4272628
90,90,"442000,33","4475163,96",90,4,SALAMANCA,41,RECOLETOS,-CALLEDE-GOYA-18,24,90,-3.6837297,40.4250878
090ampliacion,090ampliacion,"442014,61","4475162,88",090ampliacion,4,SALAMANCA,41,RECOLETOS,-CALLEDE-GOYA-20,6,090ampliacion,-3.6835613,40.4250791
91,91,"442417,66","4475274,35",91,4,SALAMANCA,42,GOYA,-CALLEDE-HERMOSILLA-73,24,91,-3.6788203,40.4261113
92,92,"441767,83","4475291,85",92,4,SALAMANCA,41,RECOLETOS,-CALLEDE-CLAUDIO-COELLO-45,24,92,-3.6864821,40.4262237
93,93,"441518,8","4475235,48",93,4,SALAMANCA,41,RECOLETOS,-CALLEDE-GOYA-3,24,93,-3.6894124,40.4256984
94,94,"441407,18","4474977,73",94,4,SALAMANCA,41,RECOLETOS,-PASEODE-RECOLETOS-22,21,94,-3.6907044,40.4233686
95,95,"441721,55",4474897,95,4,SALAMANCA,41,RECOLETOS,-CALLEDE-CLAUDIO-COELLO-19,24,95,-3.6869914,40.4226634
96,96,"442140,46","4474825,84",96,4,SALAMANCA,41,RECOLETOS,-CALLEDE-ALCALA-111,27,96,-3.6820471,40.4220516
97,97,"442301,64","4474872,66",97,4,SALAMANCA,42,GOYA,-AVENIDADE-MENENDEZ-PELAYO-1,27,97,-3.6801515,40.4224846
98,98,"442705,5","4475058,99",98,4,SALAMANCA,42,GOYA,-AVENIDADE-FELIPE-II-5,24,98,-3.6754079,40.4241911
99,99,"442829,62","4475270,48",99,4,SALAMANCA,42,GOYA,-CALLEDE-ALCANTARA-2,24,99,-3.6739638,40.4261048
100,100,"442835,81","4475123,85",100,4,SALAMANCA,42,GOYA,-CALLEDE-GOYA-99,24,100,-3.6738777,40.4247843
101,101,"443212,16","4474936,49",101,4,SALAMANCA,42,GOYA,-CALLEDE-JORGE-JUAN-131,24,101,-3.6694246,40.4231223
102,102,"441967,18","4474727,67",102,4,SALAMANCA,41,RECOLETOS,-CALLEDE-ALCALA-95,24,102,-3.6840806,40.4211552
103,103,"441766,91","4475752,49",103,4,SALAMANCA,46,CASTELLANA,-CALLEDE-JOSE-ORTEGA-Y-GASSET-4,24,103,-3.6865351,40.4303733
104,104,"441505,58","4475354,07",104,4,SALAMANCA,41,RECOLETOS,-PASEODE-LA-CASTELLANA-4,21,104,-3.6895792,40.4267658
105,105,"441684,37","4475386,27",105,4,SALAMANCA,41,RECOLETOS,-CALLEDE-SERRANO-46,24,105,-3.6874745,40.4270684
106a,106a,"441647,49","4475141,87",106a,4,SALAMANCA,41,RECOLETOS,-CALLEDE-SERRANO-32,18,106a,-3.6878868,40.4248642
106b,106b,"441649,86","4475157,87",106b,4,SALAMANCA,41,RECOLETOS,-CALLEDE-SERRANO-34,18,106b,-3.6878604,40.4250085
107,107,"441599,07","4474779,37",107,4,SALAMANCA,41,RECOLETOS,-CALLEDE-SERRANO-8,24,107,-3.6884243,40.4215952
108,108,"443111,6","4475416,83",108,4,SALAMANCA,42,GOYA,-CALLEDE-LAS-MARTIRES-CONCEPCIONISTAS-2,27,108,-3.670653,40.4274425
109,109,"442191,64","4475721,98",109,4,SALAMANCA,46,CASTELLANA,-CALLEDE-JOSE-ORTEGA-Y-GASSET-32,24,109,-3.6815253,40.4301281
110,110,"438921,15","4476262,7",110,9,MONCLOA-ARAVACA,91,CASA-DE-CAMPO,-PASEODE-MORET-,24,110,-3.7201316,40.4347654
111a,111a,"439144,16","4476128,65",111a,7,CHAMBERÍ,71,GAZTAMBIDE,-CALLEDEL-ARCIPRESTE-DE-HITA-8,24,111a,-3.7174896,40.4335742
111b,111b,"439120,04","4476174,12",111b,7,CHAMBERÍ,71,GAZTAMBIDE,-CALLEDEL-ARCIPRESTE-DE-HITA-12,24,111b,-3.7177783,40.433982
112,112,"438517,07","4476028,6",112,9,MONCLOA-ARAVACA,92,ARGÜELLES,-PASEODE-MORET-11,24,112,-3.7248727,40.4326267
113,113,"438865,35","4475484,09",113,9,MONCLOA-ARAVACA,91,CASA-DE-CAMPO,-PASEODEL-PINTOR-ROSALES-38,24,113,-3.7207145,40.4277472
114,114,"439145,29","4475490,01",114,9,MONCLOA-ARAVACA,92,ARGÜELLES,-CALLEDE-QUINTANA-13,24,114,-3.7174151,40.4278211
115,115,"439181,48","4475218,76",115,9,MONCLOA-ARAVACA,92,ARGÜELLES,-PLAZADEL-MARQUES-DE-CERRALBO-,24,115,-3.7169626,40.4253802
116a,116a,"439621,73",4475069,116a,9,MONCLOA-ARAVACA,92,ARGÜELLES,-PLAZADE-ESPAÑA-,24,116a,-3.7117588,40.4240632
116b,116b,"439614,47","4475083,02",116b,9,MONCLOA-ARAVACA,92,ARGÜELLES,-PLAZADE-ESPAÑA-,24,116b,-3.7118457,40.4241889
117,117,"439020,83","4475833,31",117,9,MONCLOA-ARAVACA,92,ARGÜELLES,-CALLEDE-ALTAMIRANO-24,24,117,-3.7189152,40.4309046
118,118,"441605,64","4472470,47",118,2,ARGANZUELA,26,PALOS-DE-MOGUER,-CALLEDE-JUAN-MARTIN-EL-EMPECINADO-16,24,118,-3.688135,40.4007959
119,119,"441738,36","4472542,79",119,2,ARGANZUELA,27,ATOCHA,-CALLEDE-MENDEZ-ALVARO-7,24,119,-3.6865777,40.4014567
120,120,"441043,78","4472723,55",120,2,ARGANZUELA,26,PALOS-DE-MOGUER,-CALLEDE-PALOS-DE-LA-FRONTERA-27,24,120,-3.6947791,40.4030362
121,121,"440718,1","4472592,85",121,2,ARGANZUELA,26,PALOS-DE-MOGUER,-PASEODE-SANTA-MARIA-DE-LA-CABEZA-58,24,121,-3.6986046,40.4018356
122,122,"440941,06","4475664,68",122,7,CHAMBERÍ,74,ALMAGRO,-CALLEDE-SANTA-ENGRACIA-16,24,122,-3.6962626,40.429524
123,123,"439482,59","4475800,04",123,7,CHAMBERÍ,71,GAZTAMBIDE,-CALLEDE-GUZMAN-EL-BUENO-2,24,123,-3.7134685,40.4306386
124,124,"440683,01","4475810,28",124,7,CHAMBERÍ,73,TRAFALGAR,-CALLEDE-MANUEL-SILVELA-18,24,124,-3.6993182,40.4308173
125,125,"441067,49","4476306,28",125,7,CHAMBERÍ,74,ALMAGRO,-CALLEDE-FERNANDEZ-DE-LA-HOZ-29,24,125,-3.6948316,40.4353128
126,126,"440480,69","4476228,15",126,7,CHAMBERÍ,73,TRAFALGAR,-CALLEDEL-GENERAL-ALVAREZ-DE-CASTRO-4,24,126,-3.7017424,40.4345672
127,127,"439915,53","4476159,21",127,7,CHAMBERÍ,72,ARAPILES,-CALLEDE-FERNANDO-EL-CATOLICO-19,24,127,-3.7083987,40.4339055
128,128,"439313,53","4476733,24",128,7,CHAMBERÍ,71,GAZTAMBIDE,-CALLEDE-CEA-BERMUDEZ-59,24,128,-3.7155506,40.4390329
128ampliacion,128ampliacion,"439301,59","4476734,02",128ampliacion,7,CHAMBERÍ,71,GAZTAMBIDE,-CALLEDE-CEA-BERMUDEZ-59,3,128ampliacion,-3.7156915,40.4390391
129,129,"440777,63","4476658,85",129,7,CHAMBERÍ,75,RÍOS-ROSAS-,-CALLEDE-JOSE-ABASCAL-33,24,129,-3.6982818,40.4384684
130,130,"440489,99","4477022,03",130,7,CHAMBERÍ,75,RÍOS-ROSAS-,-CALLEDE-SANTA-ENGRACIA-129,20,130,-3.7017071,40.4417195
131,131,"440293,7","4477027,45",131,7,CHAMBERÍ,75,RÍOS-ROSAS-,-CALLEDE-BRAVO-MURILLO-44,24,131,-3.704022,40.4417543
132,132,"440334,34","4477541,61",132,7,CHAMBERÍ,75,RÍOS-ROSAS-,-CALLEDE-SANTA-ENGRACIA-168,24,132,-3.7035911,40.4463889
133,133,"440637,08","4477625,61",133,6,TETUÁN,62,CUATRO-CAMINOS-,-CALLEDE-DULCINEA-3,24,133,-3.7000292,40.4471673
134,134,"441017,45","4477274,01",134,7,CHAMBERÍ,75,RÍOS-ROSAS-,-CALLEDE-MARIA-DE-GUZMAN-58,24,134,-3.6955114,40.444027
135,135,"441237,54","4476990,04",135,7,CHAMBERÍ,75,RÍOS-ROSAS-,-PLAZADE-SAN-JUAN-DE-LA-CRUZ-,24,135,-3.6928901,40.4414845
136,136,"441417,02","4477410,33",136,5,CHAMARTÍN,51,EL-VISO-,-PASEODE-LA-CASTELLANA-106,24,136,-3.6908127,40.4452833
137,137,"441885,33","4477430,27",137,5,CHAMARTÍN,51,EL-VISO-,-PLAZADE-LA-REPUBLICA-ARGENTINA-6,24,137,-3.6852925,40.4454958
138,138,"441352,15","4477455,81",138,7,CHAMBERÍ,75,RÍOS-ROSAS-,-PASEODE-LA-CASTELLANA-108,24,138,-3.6915818,40.4456884
139,139,"441442,67","4476752,13",139,5,CHAMARTÍN,51,EL-VISO-,-CALLEDE-JOSE-GUTIERREZ-ABASCAL-,24,139,-3.6904495,40.4393558
140,140,"442081,95","4476666,37",140,5,CHAMARTÍN,51,EL-VISO-,-CALLEDE-VELAZQUEZ-134,24,140,-3.6829045,40.438628
140ampliación,140ampliación,"442081,16","4476654,37",140ampliación,5,CHAMARTÍN,51,EL-VISO-,-CALLEDE-VELAZQUEZ-134,3,140ampliación,-3.6829127,40.4385198
141,141,"441537,59","4476315,08",141,7,CHAMBERÍ,74,ALMAGRO,-PASEODE-LA-CASTELLANA-43,12,141,-3.6892902,40.4354253
142,142,"441641,97","4476103,45",142,4,SALAMANCA,46,CASTELLANA,-PASEODE-LA-CASTELLANA-,24,142,-3.6880402,40.4335262
143,143,"442474,52","4476217,99",143,4,SALAMANCA,45,LISTA,-CALLEDE-DIEGO-DE-LEON-54,24,143,-3.6782355,40.434616
144,144,"442707,74","4475961,24",144,4,SALAMANCA,45,LISTA,-CALLEDE-JUAN-BRAVO-50,24,144,-3.6754628,40.4323192
145,145,"443050,11","4475675,85",145,4,SALAMANCA,45,LISTA,-CALLEDE-JOSE-ORTEGA-Y-GASSET-87,24,145,-3.671401,40.4297717
146,146,"442435,7","4477286,68",146,5,CHAMARTÍN,51,EL-VISO-,-CALLEDE-MARIA-FRANCISCA-1,18,146,-3.67879,40.4442406
147,147,"442372,1","4477741,71",147,5,CHAMARTÍN,51,EL-VISO-,-AVENIDADEL-DOCTOR-ARCE-45,24,147,-3.6795811,40.4483353
148,148,"442194,78","4478041,13",148,5,CHAMARTÍN,51,EL-VISO-,-CALLEDE-SERRANO-210,24,148,-3.6816993,40.4510203
149,149,"441672,11","4477914,69",149,5,CHAMARTÍN,51,EL-VISO-,-PASEODE-LA-HABANA-42,24,149,-3.6878512,40.4498448
150,150,"441443,38","4477835,19",150,5,CHAMARTÍN,51,EL-VISO-,-PASEODE-LA-CASTELLANA-,24,150,-3.690541,40.4491125
151,151,"441047,89","4477810,45",151,6,TETUÁN,62,CUATRO-CAMINOS-,-CALLEDE-ORENSE-10,24,151,-3.6952023,40.4488617
152,152,"440733,5","4478240,82",152,6,TETUÁN,62,CUATRO-CAMINOS-,-AVENIDADEL-GENERAL-PERON-4,24,152,-3.6989497,40.4527163
153,153,"441230,1","4478196,25",153,6,TETUÁN,62,CUATRO-CAMINOS-,-AVENIDADEL-GENERAL-PERON-36,24,153,-3.6930894,40.45235
154,154,"441097,89","4478466,69",154,6,TETUÁN,62,CUATRO-CAMINOS-,-CALLEDE-ORENSE-36,24,154,-3.6946736,40.4547769
155,155,"440575,2","4478749,38",155,6,TETUÁN,62,CUATRO-CAMINOS-,-CALLEDE-SAN-GERMÁN-55,24,155,-3.700864,40.4572863
156,156,"441385,88","4478959,93",156,6,TETUÁN,63,CASTILLEJOS,-CALLEDE-SOR-ANGELA-DE-LA-CRUZ-2,24,156,-3.6913229,40.4592406
157,157,"441554,84","4478963,2",157,5,CHAMARTÍN,55,NUEVA-ESPAÑA-,-PASEODE-LA-CASTELLANA-,24,157,-3.6893305,40.459282
158,158,"441946,46","4478886,67",158,5,CHAMARTÍN,54,HISPANOAMÉRICA,-AVENIDADE-ALBERTO-ALCOCER-22-A,24,158,-3.6847049,40.45862
159,159,"442024,96","4478401,51",159,5,CHAMARTÍN,54,HISPANOAMÉRICA,-PASEODE-LA-HABANA-63,24,159,-3.6837348,40.4542549
160,160,"442630,95","4478723,71",160,5,CHAMARTÍN,54,HISPANOAMÉRICA,-CALLEDE-COLOMBIA-7,24,160,-3.6766176,40.4571995
161,161,"438745,93","4474862,31",161,9,MONCLOA-ARAVACA,91,CASA-DE-CAMPO,-PASEODE-LA-FLORIDA-8,24,161,-3.7220624,40.4221372
161ampliacion,161ampliacion,"438754,04","4474853,3",161ampliacion,9,MONCLOA-ARAVACA,91,CASA-DE-CAMPO,-PASEODE-LA-FLORIDA-6,3,161ampliacion,-3.7219659,40.4220566
162,162,"439688,47","4472787,76",162,2,ARGANZUELA,22,ACACIAS,-PASEODE-LOS-OLMOS-28,24,162,-3.7107559,40.4035176
163,163,"440055,04","4472797,85",163,2,ARGANZUELA,22,ACACIAS,-PASEODE-LA-ESPERANZA-,21,163,-3.7064372,40.4036349
164,164,"441063,58","4472068,5",164,2,ARGANZUELA,25,DELICIAS,-PASEODE-LAS-DELICIAS-94,24,164,-3.6944851,40.3971366
165,165,"440794,37","4471598,57",165,2,ARGANZUELA,23,CHOPERA,-PASEODE-LA-CHOPERA-49,27,165,-3.6976134,40.3928841
166,166,"439478,68","4473946,37",166,1,CENTRO,11,PALACIO,-CALLEDE-SEGOVIA-21,24,166,-3.7133382,40.4139396
167,167,"439113,04","4473926,4",167,2,ARGANZUELA,21,IMPERIAL,-CALLEDE-SEGOVIA-47-A,24,167,-3.7176456,40.4137331
168,168,"440948,66","4472895,98",168,2,ARGANZUELA,26,PALOS-DE-MOGUER,-PASEODE-SANTA-MARIA-DE-LA-CABEZA-32,24,168,-3.6959159,40.4045828
169,169,"439424,51","4472574,58",169,2,ARGANZUELA,22,ACACIAS,-CALLEDE-TOLEDO-181,24,169,-3.713846,40.401578
170,170,"440225,41","4472515,53",170,2,ARGANZUELA,22,ACACIAS,-PASEODE-LA-ESPERANZA-21,24,170,-3.704403,40.4011039
171,171,"440729,75","4472362,64",171,2,ARGANZUELA,25,DELICIAS,-CALLEDE-EMBAJADORES-97,24,171,-3.6984459,40.3997626
172,172,"441146,63","4472482,09",172,2,ARGANZUELA,26,PALOS-DE-MOGUER,-CALLEDE-BUSTAMANTE-1,24,172,-3.6935448,40.4008683
173,173,"440396,07","4472189,13",173,2,ARGANZUELA,22,ACACIAS,-PASEODE-LA-ESPERANZA-59,24,173,-3.7023615,40.3981757
174,174,"440054,62","4472107,63",174,2,ARGANZUELA,22,ACACIAS,-PASEODE-LAS-YESERIAS-8,27,174,-3.7063771,40.397417
175,175,"440738,79","4471974,72",175,2,ARGANZUELA,23,CHOPERA,-CALLEDE-JAIME-EL-CONQUISTADOR-30,21,175,-3.6983033,40.3962687
176,176,"441133,61","4471746,54",176,2,ARGANZUELA,25,DELICIAS,-CALLEDE-ALICANTE-3,24,176,-3.6936302,40.3942411
177,177,"441092,45","4471442,79",177,2,ARGANZUELA,25,DELICIAS,-CALLEDE-BOLIVAR-3,24,177,-3.694087,40.3915019
178,178,"442391,73","4472711,75",178,3,RETIRO,31,PACÍFICO,-CALLEDE-LEON-GIL-DE-PALACIO-1,24,178,-3.6788939,40.4030242
179,179,"443221,91","4472140,39",179,13,PUENTE-DE-VALLECAS,132,SAN-DIEGO-,-AUTOVIAM-30-,24,179,-3.6690602,40.3979341
180,180,"442636,16","4471722,03",180,2,ARGANZUELA,27,ATOCHA,-CALLEDE-LA-RETAMA-5,24,180,-3.6759244,40.3941252
181,181,"442595,87","4474391,99",181,3,RETIRO,34,IBIZA,-CALLEDE-IBIZA-18,27,181,-3.67664,40.4181748
182,182,"443541,21","4474444,72",182,3,RETIRO,33,ESTRELLA,-CALLEDEL-ALCALDE-SAINZ-DE-BARANDA-90,24,182,-3.6655023,40.4187145
183,183,"443212,07","4475215,51",183,4,SALAMANCA,42,GOYA,-CALLEDE-HERMOSILLA-135,24,183,-3.6694506,40.4256358
184,184,"443563,66","4475253,54",184,4,SALAMANCA,43,FUENTE-DEL-BERRO,-PASEODEL-MARQUES-DE-ZAFRA-24,24,184,-3.6653095,40.4260023
185,185,"443883,24","4475147,45",185,4,SALAMANCA,43,FUENTE-DEL-BERRO,-GLORIETADEL-MARQUES-DE-ZAFRA-4,24,185,-3.661533,40.4250682
186,186,"442466,16","4475602,3",186,4,SALAMANCA,45,LISTA,-CALLEDEL-GENERAL-PARDIÑAS-56,24,186,-3.6782783,40.429069
187,187,"443691,7","4475711,36",187,4,SALAMANCA,43,FUENTE-DEL-BERRO,-CALLEDE-ALEJANDRO-GONZALEZ-1,24,187,-3.6638407,40.4301353
188,188,"444111,11","4475822,61",188,15,CIUDAD-LINEAL,151,VENTAS,-AVENIDADE-DAROCA-2,27,188,-3.6589062,40.4311658
189,189,"444399,55","4476248,37",189,15,CIUDAD-LINEAL,154,CONCEPCIÓN,-CALLEDE-LA-VIRGEN-DE-LA-ALEGRIA-18,24,189,-3.6555431,40.4350206
190,190,"442030,24","4476194,79",190,4,SALAMANCA,46,CASTELLANA,-CALLEDE-VELAZQUEZ-91,24,190,-3.6834711,40.4343761
191,191,"442830,66","4476215,36",191,4,SALAMANCA,44,GUINDALERA,-CALLEDE-ALONSO-HEREDIA-1,18,191,-3.6740365,40.4346168
192,192,"443049,28","4475907,11",192,4,SALAMANCA,44,GUINDALERA,-AVENIDADE-LOS-TOREROS-3,27,192,-3.6714315,40.431855
193,193,"443540,74","4475977,26",193,4,SALAMANCA,44,GUINDALERA,-AVENIDADE-LOS-TOREROS-47,24,193,-3.665644,40.4325204
194,194,"442564,99","4476503,98",194,4,SALAMANCA,44,GUINDALERA,-CALLEDE-FRANCISCO-SILVELA-86,24,194,-3.6771947,40.4371986
195,195,"442711,2","4476730,39",195,5,CHAMARTÍN,52,PROSPERIDAD,-CALLEDEL-PADRE-INDALECIO-HERNANDEZ-1,24,195,-3.6754913,40.4392483
196,196,"442749,2","4477268,2",196,5,CHAMARTÍN,53,CIUDAD-JARDÍN-,-CALLEDE-SUERO-DE-QUIÑONES-2,24,196,-3.6750918,40.4440957
197,197,"442506,78","4478097,54",197,5,CHAMARTÍN,51,EL-VISO-,-AVENIDADE-CONCHA-ESPINA-,24,197,-3.6780252,40.4515501
198,198,"441342,11","4476060,39",198,7,CHAMBERÍ,74,ALMAGRO,-GLORIETADE-RUBEN-DARIO-2,24,198,-3.6915713,40.4331172
199,199,"439369,52","4476210,1",199,7,CHAMBERÍ,71,GAZTAMBIDE,-CALLEDE-FERNANDO-EL-CATOLICO-61,27,199,-3.7148406,40.4343244
200,200,"440231,49","4476129,61",200,7,CHAMBERÍ,72,ARAPILES,-GLORIETADE-QUEVEDO-4,24,200,-3.704671,40.4336617
201,201,"440308,49","4476691,87",201,7,CHAMBERÍ,75,RÍOS-ROSAS-,-CALLEDE-JOSE-ABASCAL-2,24,201,-3.7038161,40.4387323
202,202,"439947,59","4476965,21",202,7,CHAMBERÍ,76,VALLEHERMOSO,-CALLEDE-SANTANDER-,24,202,-3.7080969,40.4411686
203,203,"439411,53","4477034,58",203,7,CHAMBERÍ,76,VALLEHERMOSO,-CALLEDEL-GENERAL-AMPUDIA-2,24,203,-3.7144239,40.4417547
204,204,"440286,36","4477683,16",204,6,TETUÁN,61,BELLAS-VISTAS-,-CALLEDEL-DOCTOR-SANTERO-1,24,204,-3.7041702,40.4476606
205,205,"440361,85","4478331,04",205,6,TETUÁN,61,BELLAS-VISTAS-,-CALLEDE-NAVARRA-1,24,205,-3.7033408,40.4535024
206,206,"440732,11","4479138,12",206,6,TETUÁN,66,BERRUGUETE,-CALLEDEL-MARQUES-DE-VIANA-5,24,206,-3.6990499,40.4607994
207,207,"440874,02","4479384,51",207,6,TETUÁN,65,VALDEACEDERAS,-CALLEDE-LAS-AZUCENAS-1,18,207,-3.6973991,40.4630291
208,208,"441615,82","4479765,37",208,5,CHAMARTÍN,56,CASTILLA,-PASEODE-LA-CASTELLANA-,24,208,-3.6886852,40.4665125
209,209,"441606,43","4479673,82",209,5,CHAMARTÍN,55,NUEVA-ESPAÑA-,-PLAZADE-CASTILLA-9,24,209,-3.6887875,40.4656872
210,210,"440392,24","4474584,46",210,1,CENTRO,16,SOL,-CALLEDE-LAS-TRES-CRUCES-9,27,210,-3.702631,40.4197538
211,211,"440400,99","4474680,19",211,1,CENTRO,15,UNIVERSIDAD,-CALLEDEL-DESENGAÑO-3,24,211,-3.7025369,40.4206168
212,212,"439193,57","4472197,09",212,11,CARABANCHEL,113,SAN-ISIDRO-,-GLORIETADEL-MARQUES-DE-VADILLO-9,24,212,-3.7165313,40.3981605
213,213,"440574,99","4471162,08",213,12,USERA,125,MOSCARDÓ,-CALLEDE-ANTONIO-LOPEZ-129,24,213,-3.7001575,40.3889363
214,214,"444286,32","4477179,51",214,15,CIUDAD-LINEAL,155,SAN-PASCUAL-,-CALLEDE-LA-CONDESA-DE-VENADITO-2,24,214,-3.6569597,40.4434012
215,215,"445631,32","4475647,64",215,15,CIUDAD-LINEAL,152,PUEBLO-NUEVO-,-CALLEDE-GUTIERRE-DE-CETINA-77,24,215,-3.6409697,40.4296903
216,216,"438158,91","4473969,7",216,10,LATINA,12,PUERTA-DEL-ÁNGEL,-PLAZADE-LA-PUERTA-DEL-ANGEL-3,24,216,-3.7288948,40.4140528
217,217,"441592,41","4481374,08",217,8,FUENCARRAL-EL-PARDO,85,LA-PAZ-,-CALLEDE-PEDRO-RICO-4,24,217,-3.6891094,40.4810028
218,218,"444221,86","4473533,53",218,14,MORATALAZ,144,MEDIA-LEGUA-,-CALLEDEL-CAMINO-DE-LOS-VINATEROS-28,24,218,-3.6573999,40.4105519
219,219,"445121,32","4473287,59",219,14,MORATALAZ,143,MARROQUINA,-CALLEDEL-CAMINO-DE-LOS-VINATEROS-108,24,219,-3.6467783,40.4083961
220,220,"444725,09","4473041,7",220,14,MORATALAZ,144,MEDIA-LEGUA-,-CALLEDEL-ARROYO-DE-LAS-PILILLAS-4,24,220,-3.6514264,40.4061548
221,221,"446141,03","4472399,01",221,14,MORATALAZ,141,PAVONES,-CALLEDE-LA-HACIENDA-DE-PAVONES-346,24,221,-3.6346859,40.4004579
222,222,"440362,66","4471479,61",222,12,USERA,125,MOSCARDÓ,-CALLEDE-EUGENIO-CAXES-5,24,222,-3.7026887,40.3917816
223,223,"438522,93","4473120,98",223,10,LATINA,11,CÁRMENES,-PASEODE-LA-ERMITA-DEL-SANTO-48,24,223,-3.7245226,40.4064341
224,224,438160,"4473395,7",224,10,LATINA,12,PUERTA-DEL-ÁNGEL,-CALLEDE-CARAMUEL-52,24,224,-3.7288262,40.408882
225,225,"443978,28","4472656,95",225,13,PUENTE-DE-VALLECAS,136,NUMANCIA,-CALLEDE-LA-SIERRA-TOLEDANA-33,24,225,-3.6601933,40.4026388
226,226,"443934,22","4472275,39",226,13,PUENTE-DE-VALLECAS,136,NUMANCIA,-CAMINODE-VALDERRIBAS-94,24,226,-3.6606789,40.3991986
227,227,"443466,29","4471705,78",227,13,PUENTE-DE-VALLECAS,132,SAN-DIEGO-,-CALLEDEL-ARROYO-DEL-OLIVAR-4,24,227,-3.6661421,40.3940355
228,228,"439910,49","4471772,12",228,11,CARABANCHEL,111,COMILLA,-CALLEDE-SAN-DELFIN-9,24,228,-3.7080437,40.3943842
229,229,"444985,82","4476472,45",229,15,CIUDAD-LINEAL,154,CONCEPCIÓN,-CALLEDE-JOSE-DEL-HIERRO-5,24,229,-3.6486507,40.4370782
230,230,"444952,82","4477207,59",230,15,CIUDAD-LINEAL,155,SAN-PASCUAL-,-CALLEDE-CARLOTA-O'NEILL-32,24,230,-3.6491034,40.4436986
231,231,"444380,2","4476773,28",231,15,CIUDAD-LINEAL,155,SAN-PASCUAL-,-CALLEDE-LOS-DERECHOS-HUMANOS-14,24,231,-3.6558172,40.439748
232,232,"444989,2","4476001,54",232,15,CIUDAD-LINEAL,151,VENTAS,-CALLEDE-JOSE-MARIA-PEREDA-1,24,232,-3.6485701,40.4328362
233,233,"444381,95","4474904,65",233,15,CIUDAD-LINEAL,151,VENTAS,-AVENIDADEL-MARQUES-DE-CORBERA-12,24,233,-3.655633,40.4229144
234,234,"444767,03","4475262,41",234,15,CIUDAD-LINEAL,151,VENTAS,-AVENIDADEL-MARQUES-DE-CORBERA-52,24,234,-3.651125,40.426163
235,235,"441336,7","4471161,52",235,2,ARGANZUELA,24,LEGAZPI,-CALLEDEL-SODIO-1-B,24,235,-3.6911834,40.3889853
236,236,"439149,84","4473225,71",236,2,ARGANZUELA,21,IMPERIAL,-PASEOIMPERIAL-20,24,236,-3.7171449,40.4074236
237,237,"439751,68","4478101,98",237,6,TETUÁN,61,BELLAS-VISTAS-,-CALLEDE-FRANCISCO-BALSEIRO-,24,237,-3.7105146,40.451395
238,238,"441220,07","4478625,73",238,6,TETUÁN,62,CUATRO-CAMINOS-,-CALLEDE-SAN-GERMÁN-5,24,238,-3.6932474,40.4562183
239,239,"439975,8","4478692,91",239,6,TETUÁN,66,BERRUGUETE,-CALLEDE-FRANCOS-RODRIGUEZ-62,24,239,-3.7079276,40.4567345
240,240,"443939,09","4476439,76",240,4,SALAMANCA,44,GUINDALERA,-AVENIDADE-BRASILIA-9,24,240,-3.6609886,40.4367138
241,241,"443363,99","4476559,86",241,4,SALAMANCA,44,GUINDALERA,-AVENIDADE-CAMILO-JOSE-CELA-23,24,241,-3.6677796,40.4377568
242,242,"443778,78","4476746,49",242,4,SALAMANCA,44,GUINDALERA,-AVENIDADE-BRUSELAS-56,24,242,-3.6629058,40.4394662
243,243,"443165,91","4476273,63",243,4,SALAMANCA,44,GUINDALERA,-CALLEDE-CARTAGENA-38,24,243,-3.6700894,40.4351648
244,244,"439144,97","4476825,45",244,7,CHAMBERÍ,76,VALLEHERMOSO,-CALLEDE-ISAAC-PERAL-44,24,244,-3.7175468,40.4398513
245,245,"439767,36","4476444,58",245,7,CHAMBERÍ,72,ARAPILES,-CALLEDE-GALILEO-63,24,245,-3.7101726,40.4364656
246,246,"440693,2","4476388,4",246,7,CHAMBERÍ,73,TRAFALGAR,-CALLEDE-SANTA-ENGRACIA-87,24,246,-3.699252,40.436026
247,247,"441238,82","4476643,99",247,7,CHAMBERÍ,75,RÍOS-ROSAS-,-CALLEDE-ZURBANO-90,24,247,-3.692843,40.4383672
248,248,"441694,11","4480631,92",248,8,FUENCARRAL-EL-PARDO,85,LA-PAZ-,-CALLEDE-SINESIO-DELGADO-2,24,248,-3.6878414,40.4743243
249,249,"441914,27","4481195,42",249,5,CHAMARTÍN,56,CASTILLA,-PASEODE-LA-CASTELLANA-298,24,249,-3.6852959,40.4794159
250,250,"441812,82","4476911,24",250,5,CHAMARTÍN,51,EL-VISO-,-CALLEDE-SERRANO-113-B,24,250,-3.6861,40.4408151
251,251,"443447,95","4477272,58",251,5,CHAMARTÍN,52,PROSPERIDAD,-CALLEDE-SANTA-HORTENSIA-31,24,251,-3.6668532,40.444183
252,252,"442025,04","4480322,99",252,5,CHAMARTÍN,56,CASTILLA,-CALLEDE-RODRIGUEZ-JAEN-,24,252,-3.6839094,40.4715645
253,253,"441626,91","4478554,58",253,5,CHAMARTÍN,54,HISPANOAMÉRICA,-CALLEDEL-DOCTOR-FLEMING-7,24,253,-3.688443,40.455606
254,254,"442639,53","4479150,36",254,5,CHAMARTÍN,55,NUEVA-ESPAÑA-,-AVENIDADE-PIO-XII-3,24,254,-3.6765549,40.4610436
255,255,"441910,45","4479454,04",255,5,CHAMARTÍN,55,NUEVA-ESPAÑA-,-CALLEDEL-GENERAL-LOPEZ-POZAS-2,24,255,-3.6851815,40.4637286
256,256,"439465,58","4477545,36",256,9,MONCLOA-ARAVACA,93,CIUDAD-UNIVERSITARIA-,-CALLEDE-BEATRIZ-DE-BOBADILLA-2,24,256,-3.7138353,40.4463599
257,257,"438063,25","4476718,06",257,9,MONCLOA-ARAVACA,93,CIUDAD-UNIVERSITARIA-,-AVENIDADE-JUAN-DE-HERRERA-1,24,257,-3.73029,40.438804
258,258,"438326,14","4477849,84",258,9,MONCLOA-ARAVACA,93,CIUDAD-UNIVERSITARIA-,-AVENIDACOMPLUTENSE-14,24,258,-3.7273004,40.449019
259,259,"438344,78","4477338,89",259,9,MONCLOA-ARAVACA,93,CIUDAD-UNIVERSITARIA-,-PLAZADE-RAMON-Y-CAJAL-,24,259,-3.727031,40.4444176
260,260,"438328,53","4477762,41",260,9,MONCLOA-ARAVACA,93,CIUDAD-UNIVERSITARIA-,-CALLEDE-JOSE-ANTONIO-NOVAIS-,24,260,-3.7272637,40.4482316
261,261,"438161,53","4478015,95",261,9,MONCLOA-ARAVACA,93,CIUDAD-UNIVERSITARIA-,-AVENIDACOMPLUTENSE-7,24,261,-3.7292576,40.4505032
